{"type": "FeatureCollection", "features": [ {"type": "Feature", "properties": {"norad_id": 30815, "name": "FENGYUN 1C DEB", "group": "fengyun-1c-debris", "lat": -80.44196384871799, "lon": -102.62757188425998, "alt_km": 653.5785931665123, "timestamp": "2025-12-22T16:55:17.742099+00:00", "meta": {"OBJECT_NAME": "FENGYUN 1C DEB", "OBJECT_ID": "1999-025AUZ", "EPOCH": "2025-12-22T00:00:14.649984", "MEAN_MOTION": 14.73969877, "ECCENTRICITY": 0.00028923, "INCLINATION": 99.2998, "RA_OF_ASC_NODE": 153.2568, "ARG_OF_PERICENTER": 269.2255, "MEAN_ANOMALY": 220.3187, "EPHEMERIS_TYPE": 0, "CLASSIFICATION_TYPE": "U", "NORAD_CAT_ID": 30815, "ELEMENT_SET_NO": 999, "REV_AT_EPOCH": 97916, "BSTAR": 0.0039771027, "MEAN_MOTION_DOT": 0.0002616, "MEAN_MOTION_DDOT": 0}, "tle": {"line1": "1 30815U 99025AUZ 25356.00016956  .00026160  00000+0  39771-2 0  9993", "line2": "2 30815  99.2998 153.2568 0002892 269.2255 220.3187 14.73969877979163"}}, "geometry": {"type": "Point", "coordinates": [-102.62757188425998, -80.44196384871799]}}, {"type": "Feature", "properties": {"norad_id": 30816, "name": "FENGYUN 1C DEB", "group": "fengyun-1c-debris", "lat": 46.811312751392094, "lon": 57.59923745935686, "alt_km": 792.8672902664757, "timestamp": "2025-12-22T16:55:17.742109+00:00", "meta": {"OBJECT_NAME": "FENGYUN 1C DEB", "OBJECT_ID": "1999-025AVA", "EPOCH": "2025-12-21T17:34:09.647040", "MEAN_MOTION": 14.18060149, "ECCENTRICITY": 0.00517771, "INCLINATION": 98.9138, "RA_OF_ASC_NODE": 66.2472, "ARG_OF_PERICENTER": 29.3431, "MEAN_ANOMALY": 93.6158, "EPHEMERIS_TYPE": 0, "CLASSIFICATION_TYPE": "U", "NORAD_CAT_ID": 30816, "ELEMENT_SET_NO": 999, "REV_AT_EPOCH": 96521, "BSTAR": 0.0012528706, "MEAN_MOTION_DOT": 2.558e-05, "MEAN_MOTION_DDOT": 0}, "tle": {"line1": "1 30816U 99025AVA 25355.73205610  .00002558  00000+0  12529-2 0  9997", "line2": "2 30816  98.9138  66.2472 0051777  29.3431  93.6158 14.18060149965213"}}, "geometry": {"type": "Point", "coordinates": [57.59923745935686, 46.811312751392094]}}, {"type": "Feature", "properties": {"norad_id": 30817, "name": "FENGYUN 1C DEB", "group": "fengyun-1c-debris", "lat": -50.2565315096028, "lon": 155.81541919262324, "alt_km": 857.6051022579231, "timestamp": "2025-12-22T16:55:17.742122+00:00", "meta": {"OBJECT_NAME": "FENGYUN 1C DEB", "OBJECT_ID": "1999-025AVB", "EPOCH": "2025-12-21T10:40:37.228512", "MEAN_MOTION": 14.00725647, "ECCENTRICITY": 0.00575445, "INCLINATION": 98.7854, "RA_OF_ASC_NODE": 345.3222, "ARG_OF_PERICENTER": 220.0513, "MEAN_ANOMALY": 139.6403, "EPHEMERIS_TYPE": 0, "CLASSIFICATION_TYPE": "U", "NORAD_CAT_ID": 30817, "ELEMENT_SET_NO": 999, "REV_AT_EPOCH": 96031, "BSTAR": 0.00012209363, "MEAN_MOTION_DOT": 1.42e-06, "MEAN_MOTION_DDOT": 0}, "tle": {"line1": "1 30817U 99025AVB 25355.44487533  .00000142  00000+0  12209-3 0  9995", "line2": "2 30817  98.7854 345.3222 0057544 220.0513 139.6403 14.00725647960312"}}, "geometry": {"type": "Point", "coordinates": [155.81541919262324, -50.2565315096028]}}, {"type": "Feature", "properties": {"norad_id": 30820, "name": "FENGYUN 1C DEB", "group": "fengyun-1c-debris", "lat": 61.677672148050306, "lon": -70.70475418021422, "alt_km": 786.4469541037315, "timestamp": "2025-12-22T16:55:17.742132+00:00", "meta": {"OBJECT_NAME": "FENGYUN 1C DEB", "OBJECT_ID": "1999-025AVE", "EPOCH": "2025-12-20T01:01:00.867360", "MEAN_MOTION": 14.21453719, "ECCENTRICITY": 0.00521121, "INCLINATION": 98.6769, "RA_OF_ASC_NODE": 90.2187, "ARG_OF_PERICENTER": 166.8384, "MEAN_ANOMALY": 12.569, "EPHEMERIS_TYPE": 0, "CLASSIFICATION_TYPE": "U", "NORAD_CAT_ID": 30820, "ELEMENT_SET_NO": 999, "REV_AT_EPOCH": 96527, "BSTAR": 0.001235858, "MEAN_MOTION_DOT": 2.697e-05, "MEAN_MOTION_DDOT": 0}, "tle": {"line1": "1 30820U 99025AVE 25354.04237115  .00002697  00000+0  12359-2 0  9995", "line2": "2 30820  98.6769  90.2187 0052112 166.8384  12.5690 14.21453719965273"}}, "geometry": {"type": "Point", "coordinates": [-70.70475418021422, 61.677672148050306]}}, {"type": "Feature", "properties": {"norad_id": 30821, "name": "FENGYUN 1C DEB", "group": "fengyun-1c-debris", "lat": 76.86025024400122, "lon": 3.4593347650691895, "alt_km": 704.603700161967, "timestamp": "2025-12-22T16:55:17.742143+00:00", "meta": {"OBJECT_NAME": "FENGYUN 1C DEB", "OBJECT_ID": "1999-025AVF", "EPOCH": "2025-12-21T09:14:46.572000", "MEAN_MOTION": 14.49711563, "ECCENTRICITY": 0.00866274, "INCLINATION": 99.104, "RA_OF_ASC_NODE": 138.6492, "ARG_OF_PERICENTER": 180.1107, "MEAN_ANOMALY": 236.2597, "EPHEMERIS_TYPE": 0, "CLASSIFICATION_TYPE": "U", "NORAD_CAT_ID": 30821, "ELEMENT_SET_NO": 999, "REV_AT_EPOCH": 98914, "BSTAR": 0.00063106349, "MEAN_MOTION_DOT": 2.494e-05, "MEAN_MOTION_DDOT": 0}, "tle": {"line1": "1 30821U 99025AVF 25355.38526125  .00002494  00000+0  63106-3 0  9998", "line2": "2 30821  99.1040 138.6492 0086627 180.1107 236.2597 14.49711563989145"}}, "geometry": {"type": "Point", "coordinates": [3.4593347650691895, 76.86025024400122]}}, {"type": "Feature", "properties": {"norad_id": 30822, "name": "FENGYUN 1C DEB", "group": "fengyun-1c-debris", "lat": 77.56131336361807, "lon": -19.68281557202611, "alt_km": 900.2881483939009, "timestamp": "2025-12-22T16:55:17.742153+00:00", "meta": {"OBJECT_NAME": "FENGYUN 1C DEB", "OBJECT_ID": "1999-025AVG", "EPOCH": "2025-12-21T14:02:44.488032", "MEAN_MOTION": 14.11353011, "ECCENTRICITY": 0.0073272, "INCLINATION": 98.7342, "RA_OF_ASC_NODE": 23.4111, "ARG_OF_PERICENTER": 259.9283, "MEAN_ANOMALY": 254.7343, "EPHEMERIS_TYPE": 0, "CLASSIFICATION_TYPE": "U", "NORAD_CAT_ID": 30822, "ELEMENT_SET_NO": 999, "REV_AT_EPOCH": 96826, "BSTAR": 0.00027186, "MEAN_MOTION_DOT": 4.61e-06, "MEAN_MOTION_DDOT": 0}, "tle": {"line1": "1 30822U 99025AVG 25355.58523713  .00000461  00000+0  27186-3 0  9991", "line2": "2 30822  98.7342  23.4111 0073272 259.9283 254.7343 14.11353011968260"}}, "geometry": {"type": "Point", "coordinates": [-19.68281557202611, 77.56131336361807]}}, {"type": "Feature", "properties": {"norad_id": 30823, "name": "FENGYUN 1C DEB", "group": "fengyun-1c-debris", "lat": -41.925399566060165, "lon": -50.6203698451128, "alt_km": 985.8466429042674, "timestamp": "2025-12-22T16:55:17.742164+00:00", "meta": {"OBJECT_NAME": "FENGYUN 1C DEB", "OBJECT_ID": "1999-025AVH", "EPOCH": "2025-12-19T21:48:58.565088", "MEAN_MOTION": 14.02564135, "ECCENTRICITY": 0.0134234, "INCLINATION": 98.7634, "RA_OF_ASC_NODE": 134.6515, "ARG_OF_PERICENTER": 64.6202, "MEAN_ANOMALY": 87.319, "EPHEMERIS_TYPE": 0, "CLASSIFICATION_TYPE": "U", "NORAD_CAT_ID": 30823, "ELEMENT_SET_NO": 999, "REV_AT_EPOCH": 96134, "BSTAR": 0.00016736, "MEAN_MOTION_DOT": 2.38e-06, "MEAN_MOTION_DDOT": 0}, "tle": {"line1": "1 30823U 99025AVH 25353.90901117  .00000238  00000+0  16736-3 0  9995", "line2": "2 30823  98.7634 134.6515 0134234  64.6202  87.3190 14.02564135961349"}}, "geometry": {"type": "Point", "coordinates": [-50.6203698451128, -41.925399566060165]}}, {"type": "Feature", "properties": {"norad_id": 30826, "name": "FENGYUN 1C DEB", "group": "fengyun-1c-debris", "lat": -38.141651304724036, "lon": -160.16783636202908, "alt_km": 527.2870378480638, "timestamp": "2025-12-22T16:55:17.742174+00:00", "meta": {"OBJECT_NAME": "FENGYUN 1C DEB", "OBJECT_ID": "1999-025AVL", "EPOCH": "2025-12-20T19:47:26.677248", "MEAN_MOTION": 14.82301373, "ECCENTRICITY": 0.01448173, "INCLINATION": 98.8662, "RA_OF_ASC_NODE": 190.7086, "ARG_OF_PERICENTER": 331.2092, "MEAN_ANOMALY": 41.6036, "EPHEMERIS_TYPE": 0, "CLASSIFICATION_TYPE": "U", "NORAD_CAT_ID": 30826, "ELEMENT_SET_NO": 999, "REV_AT_EPOCH": 406, "BSTAR": 0.00035606275, "MEAN_MOTION_DOT": 3.34e-05, "MEAN_MOTION_DDOT": 0}, "tle": {"line1": "1 30826U 99025AVL 25354.82461432  .00003340  00000+0  35606-3 0  9995", "line2": "2 30826  98.8662 190.7086 0144817 331.2092  41.6036 14.82301373  4068"}}, "geometry": {"type": "Point", "coordinates": [-160.16783636202908, -38.141651304724036]}}, {"type": "Feature", "properties": {"norad_id": 30827, "name": "FENGYUN 1C DEB", "group": "fengyun-1c-debris", "lat": -36.50473154752004, "lon": -10.67076526773623, "alt_km": 802.9137463222542, "timestamp": "2025-12-22T16:55:17.742187+00:00", "meta": {"OBJECT_NAME": "FENGYUN 1C DEB", "OBJECT_ID": "1999-025AVM", "EPOCH": "2025-12-22T05:24:17.025120", "MEAN_MOTION": 14.37918372, "ECCENTRICITY": 0.00439891, "INCLINATION": 99.0037, "RA_OF_ASC_NODE": 342.0879, "ARG_OF_PERICENTER": 150.3136, "MEAN_ANOMALY": 210.056, "EPHEMERIS_TYPE": 0, "CLASSIFICATION_TYPE": "U", "NORAD_CAT_ID": 30827, "ELEMENT_SET_NO": 999, "REV_AT_EPOCH": 96685, "BSTAR": 0.0026816406, "MEAN_MOTION_DOT": 8.15e-05, "MEAN_MOTION_DDOT": 0}, "tle": {"line1": "1 30827U 99025AVM 25356.22519705  .00008150  00000+0  26816-2 0  9995", "line2": "2 30827  99.0037 342.0879 0043989 150.3136 210.0560 14.37918372966858"}}, "geometry": {"type": "Point", "coordinates": [-10.67076526773623, -36.50473154752004]}}, {"type": "Feature", "properties": {"norad_id": 30828, "name": "FENGYUN 1C DEB", "group": "fengyun-1c-debris", "lat": -48.81818649533102, "lon": 113.75581417385328, "alt_km": 784.9500933523959, "timestamp": "2025-12-22T16:55:17.742201+00:00", "meta": {"OBJECT_NAME": "FENGYUN 1C DEB", "OBJECT_ID": "1999-025AVN", "EPOCH": "2025-12-21T19:04:17.783328", "MEAN_MOTION": 14.77263453, "ECCENTRICITY": 0.02086675, "INCLINATION": 98.3758, "RA_OF_ASC_NODE": 103.1148, "ARG_OF_PERICENTER": 149.8617, "MEAN_ANOMALY": 1.144, "EPHEMERIS_TYPE": 0, "CLASSIFICATION_TYPE": "U", "NORAD_CAT_ID": 30828, "ELEMENT_SET_NO": 999, "REV_AT_EPOCH": 98790, "BSTAR": 0.0013165295, "MEAN_MOTION_DOT": 0.00013375, "MEAN_MOTION_DDOT": 0}, "tle": {"line1": "1 30828U 99025AVN 25355.79465027  .00013375  00000+0  13165-2 0  9992", "line2": "2 30828  98.3758 103.1148 0208667 149.8617   1.1440 14.77263453987901"}}, "geometry": {"type": "Point", "coordinates": [113.75581417385328, -48.81818649533102]}}]}